NORAD_CAT_ID,OBJECT_NAME,OBJECT_TYPE,EPOCH,MEAN_MOTION,ECCENTRICITY,INCLINATION,RA_OF_ASC_NODE,ARG_OF_PERICENTER,MEAN_ANOMALY,BSTAR,MEAN_MOTION_DOT,MEAN_MOTION_DDOT,TLE_LINE0,TLE_LINE1,TLE_LINE2,SEMIMAJOR_AXIS,PERIOD,APOGEE,PERIGEE,DECAYED
53909.0,STARLINK-4796,PAYLOAD,2024-04-06 08:41:59,15.08838369,0.0001266,53.2158,227.25,70.6527,289.4602,4.0336e-05,3.54e-06,0.0,0 STARLINK-4796,1 53909U 22119Z   24097.36249905  .00000354  00000-0  40336-4 0  9993,2 53909  53.2158 227.2500 0001266  70.6527 289.4602 15.08838369 85377,6917.885,95.438,540.626,538.875,0.0
53909.0,STARLINK-4796,PAYLOAD,2024-04-06 15:03:32,15.08843362,0.0001387,53.2159,226.0605,84.9561,275.1589,0.00011796,1.59e-05,0.0,0 STARLINK-4796,1 53909U 22119Z   24097.62745718  .00001590  00000-0  11796-3 0  9995,2 53909  53.2159 226.0605 0001387  84.9561 275.1589 15.08843362 85837,6917.87,95.437,540.695,538.776,0.0
53909.0,STARLINK-4796,PAYLOAD,2024-04-07 02:11:14,15.08843635,0.0001171,53.2162,223.9785,84.9821,275.1305,0.00015288,2.146e-05,0.0,0 STARLINK-4796,1 53909U 22119Z   24098.09113656  .00002146  00000-0  15288-3 0  9995,2 53909  53.2162 223.9785 0001171  84.9821 275.1305 15.08843635 85903,6917.869,95.437,540.544,538.924,0.0
53909.0,STARLINK-4796,PAYLOAD,2024-04-07 18:05:06,15.08836416,0.0001506,53.2181,221.005,92.555,267.5615,2.2905e-05,7.7e-07,0.0,0 STARLINK-4796,1 53909U 22119Z   24098.75354255  .00000077  00000-0  22905-4 0  9996,2 53909  53.2181 221.0050 0001506  92.5550 267.5615 15.08836416 85586,6917.891,95.438,540.798,538.715,0.0
53909.0,STARLINK-4796,PAYLOAD,2024-04-08 14:45:06,15.08844565,0.0001499,53.2157,217.1403,92.3149,267.8015,0.00026147,3.876e-05,0.0,0 STARLINK-4796,1 53909U 22119Z   24099.61466169  .00003876  00000-0  26147-3 0  9991,2 53909  53.2157 217.1403 0001499  92.3149 267.8015 15.08844565 86133,6917.866,95.437,540.768,538.694,0.0
53909.0,STARLINK-4796,PAYLOAD,2024-04-09 00:17:25,15.0884819,0.0001391,53.2129,215.3565,93.0337,267.0814,-5.0256e-06,-3.68e-06,0.0,0 STARLINK-4796,1 53909U 22119Z   24100.01209856 -.00000368  00000-0 -50256-5 0  9991,2 53909  53.2129 215.3565 0001391  93.0337 267.0814 15.08848190 86192,6917.855,95.437,540.683,538.758,0.0
53909.0,STARLINK-4796,PAYLOAD,2024-04-09 08:14:21,15.08839973,0.0001414,53.2127,213.8695,93.5584,266.557,0.00017073,2.43e-05,0.0,0 STARLINK-4796,1 53909U 22119Z   24100.34330412  .00002430  00000-0  17073-3 0  9998,2 53909  53.2127 213.8695 0001414  93.5584 266.5570 15.08839973 85823,6917.88,95.438,540.724,538.767,0.0
53909.0,STARLINK-4796,PAYLOAD,2024-04-09 14:35:53,15.08844715,0.0001467,53.2126,212.6804,92.1823,267.9337,0.00028897,4.315e-05,0.0,0 STARLINK-4796,1 53909U 22119Z   24100.60826223  .00004315  00000-0  28897-3 0  9997,2 53909  53.2126 212.6804 0001467  92.1823 267.9337 15.08844715 86287,6917.866,95.437,540.746,538.716,0.0
53909.0,STARLINK-4796,PAYLOAD,2024-04-10 08:05:08,15.08841541,0.000168,53.2204,209.4104,91.4673,268.6512,1.7226e-05,-1.4e-07,0.0,0 STARLINK-4796,1 53909U 22119Z   24101.33690205 -.00000014  00000-0  17226-4 0  9995,2 53909  53.2204 209.4104 0001680  91.4673 268.6512 15.08841541 86392,6917.876,95.437,540.903,538.578,0.0
53909.0,STARLINK-4796,PAYLOAD,2024-04-10 16:02:04,15.08834916,0.000156,53.2193,207.924,89.5066,270.6105,-9.425e-05,-1.787e-05,0.0,0 STARLINK-4796,1 53909U 22119Z   24101.66810528 -.00001787  00000-0 -94250-4 0  9994,2 53909  53.2193 207.9240 0001560  89.5066 270.6105 15.08834916 86023,6917.896,95.438,540.84,538.682,0.0
53909.0,STARLINK-4796,PAYLOAD,2024-04-11 12:42:04,15.08847239,0.0001479,53.2186,204.0568,82.5141,277.6019,9.5279e-05,1.229e-05,0.0,0 STARLINK-4796,1 53909U 22119Z   24102.52921883  .00001229  00000-0  95279-4 0  9998,2 53909  53.2186 204.0568 0001479  82.5141 277.6019 15.08847239 86159,6917.858,95.437,540.746,538.7,0.0
53909.0,STARLINK-4796,PAYLOAD,2024-04-11 14:17:27,15.08850829,0.0001486,53.2167,203.7584,78.7062,281.4097,0.00015674,2.208e-05,0.0,0 STARLINK-4796,1 53909U 22119Z   24102.59545695  .00002208  00000-0  15674-3 0  9996,2 53909  53.2167 203.7584 0001486  78.7062 281.4097 15.08850829 86584,6917.847,95.437,540.74,538.684,0.0
53909.0,STARLINK-4796,PAYLOAD,2024-04-11 23:49:46,15.08841431,0.0001586,53.2195,201.974,82.6341,277.4831,7.7464e-05,9.45e-06,0.0,0 STARLINK-4796,1 53909U 22119Z   24102.99290210  .00000945  00000-0  77464-4 0  9992,2 53909  53.2195 201.9740 0001586  82.6341 277.4831 15.08841431 86225,6917.876,95.437,540.838,538.644,0.0
53909.0,STARLINK-4796,PAYLOAD,2024-04-12 12:32:52,15.08833172,0.0001501,53.2176,199.5959,78.374,281.742,8.5213e-06,-1.52e-06,0.0,0 STARLINK-4796,1 53909U 22119Z   24103.52282872 -.00000152  00000-0  85213-5 0  9990,2 53909  53.2176 199.5959 0001501  78.3740 281.7420 15.08833172 86304,6917.901,95.438,540.805,538.728,0.0
53909.0,STARLINK-4796,PAYLOAD,2024-04-12 14:08:15,15.08836168,0.0001594,53.2168,199.2989,79.6146,280.5026,8.7999e-05,1.113e-05,0.0,0 STARLINK-4796,1 53909U 22119Z   24103.58906808  .00001113  00000-0  87999-4 0  9997,2 53909  53.2168 199.2989 0001594  79.6146 280.5026 15.08836168 86735,6917.892,95.438,540.86,538.654,0.0
53909.0,STARLINK-4796,PAYLOAD,2024-04-13 12:23:38,15.08850813,0.0001561,53.2162,195.1361,83.127,276.9899,0.00029138,4.354e-05,0.0,0 STARLINK-4796,1 53909U 22119Z   24104.51642313  .00004354  00000-0  29138-3 0  9999,2 53909  53.2162 195.1361 0001561  83.1270 276.9899 15.08850813 86459,6917.847,95.437,540.792,538.632,0.0
53909.0,STARLINK-4796,PAYLOAD,2024-04-14 12:14:26,15.08846305,0.0001582,53.2167,190.6784,77.0498,283.0671,0.00020049,2.905e-05,0.0,0 STARLINK-4796,1 53909U 22119Z   24105.51002545  .00002905  00000-0  20049-3 0  9999,2 53909  53.2167 190.6784 0001582  77.0498 283.0671 15.08846305 86605,6917.861,95.437,540.821,538.632,0.0
53909.0,STARLINK-4796,PAYLOAD,2024-04-15 12:05:12,15.08849705,0.0001633,53.2174,186.2138,93.5844,266.5335,8.8659e-05,1.124e-05,0.0,0 STARLINK-4796,1 53909U 22119Z   24106.50362028  .00001124  00000-0  88659-4 0  9998,2 53909  53.2174 186.2138 0001633  93.5844 266.5335 15.08849705 87175,6917.851,95.437,540.845,538.586,0.0
53909.0,STARLINK-4796,PAYLOAD,2024-04-16 11:55:59,15.08854794,0.0001533,53.2172,181.7571,97.0342,263.0824,0.0002697,4.009e-05,0.0,0 STARLINK-4796,1 53909U 22119Z   24107.49721813  .00004009  00000-0  26970-3 0  9990,2 53909  53.2172 181.7571 0001533  97.0342 263.0824 15.08854794 86904,6917.835,95.437,540.761,538.64,0.0
53909.0,STARLINK-4796,PAYLOAD,2024-04-17 11:46:46,15.08848339,0.0001396,53.2162,177.2959,90.5563,269.5589,0.0001202,1.626e-05,0.0,0 STARLINK-4796,1 53909U 22119Z   24108.49081745  .00001626  00000-0  12020-3 0  9997,2 53909  53.2162 177.2959 0001396  90.5563 269.5589 15.08848339 87057,6917.855,95.437,540.686,538.754,0.0
53909.0,STARLINK-4796,PAYLOAD,2024-04-17 21:19:06,15.08830758,0.0001572,53.2162,175.5089,83.1111,277.006,-0.00015994,-2.832e-05,0.0,0 STARLINK-4796,1 53909U 22119Z   24108.88826593 -.00002832  00000-0 -15994-3 0  9993,2 53909  53.2162 175.5089 0001572  83.1111 277.0060 15.08830758 87532,6917.909,95.438,540.861,538.686,0.0
53909.0,STARLINK-4796,PAYLOAD,2024-04-18 11:37:35,15.0881836,0.0001741,53.2167,172.8333,89.1314,270.9878,-0.00025017,-4.265e-05,0.0,0 STARLINK-4796,1 53909U 22119Z   24109.48444150 -.00004265  00000-0 -25017-3 0  9994,2 53909  53.2167 172.8333 0001741  89.1314 270.9878 15.08818360 87206,6917.947,95.439,541.016,538.607,0.0
53909.0,STARLINK-4796,PAYLOAD,2024-04-19 11:28:22,15.08846176,0.0001446,53.2159,168.3719,72.8149,287.3002,0.00031985,4.807e-05,0.0,0 STARLINK-4796,1 53909U 22119Z   24110.47803486  .00004807  00000-0  31985-3 0  9997,2 53909  53.2159 168.3719 0001446  72.8149 287.3002 15.08846176 87355,6917.862,95.437,540.727,538.726,0.0
53909.0,STARLINK-4796,PAYLOAD,2024-04-19 13:03:45,15.08842041,0.0001927,53.2165,168.0782,58.9188,301.1993,0.00038229,5.802e-05,0.0,0 STARLINK-4796,1 53909U 22119Z   24110.54428060  .00005802  00000-0  38229-3 0  9990,2 53909  53.2165 168.0782 0001927  58.9188 301.1993 15.08842041 87789,6917.874,95.437,541.072,538.406,0.0
53909.0,STARLINK-4796,PAYLOAD,2024-04-20 11:19:10,15.0885878,0.000157,53.2157,163.9137,75.2608,284.8558,0.00095623,0.00014971,0.0,0 STARLINK-4796,1 53909U 22119Z   24111.47164694  .00014971  00000-0  95623-3 0  9991,2 53909  53.2157 163.9137 0001570  75.2608 284.8558 15.08858780 87502,6917.823,95.436,540.774,538.602,0.0
53909.0,STARLINK-4796,PAYLOAD,2024-04-21 03:13:01,15.0883475,0.0001657,53.2161,160.9451,75.9655,284.1521,0.00045472,6.955e-05,0.0,0 STARLINK-4796,1 53909U 22119Z   24112.13404967  .00006955  00000-0  45472-3 0  9995,2 53909  53.2161 160.9451 0001657  75.9655 284.1521 15.08834750 87603,6917.896,95.438,540.908,538.615,0.0
53909.0,STARLINK-4796,PAYLOAD,2024-04-21 09:34:34,15.08835685,0.0001535,53.2167,159.7458,112.4093,247.7061,0.00027971,4.166e-05,0.0,0 STARLINK-4796,1 53909U 22119Z   24112.39901106  .00004166  00000-0  27971-3 0  9996,2 53909  53.2167 159.7458 0001535 112.4093 247.7061 15.08835685 88063,6917.894,95.438,540.82,538.697,0.0
53909.0,STARLINK-4796,PAYLOAD,2024-04-22 09:25:20,15.0887811,0.0001494,53.2161,155.2858,105.8331,254.2826,0.0012279,0.00019328,0.0,0 STARLINK-4796,1 53909U 22119Z   24113.39259897  .00019328  00000-0  12279-2 0  9990,2 53909  53.2161 155.2858 0001494 105.8331 254.2826 15.08878110 87798,6917.764,95.435,540.662,538.595,0.0
53909.0,STARLINK-4796,PAYLOAD,2024-04-23 09:16:08,15.08808292,0.0001432,53.2158,150.8272,69.5619,290.5527,0.0010883,0.0001706,0.0,0 STARLINK-4796,1 53909U 22119Z   24114.38621281  .00017060  00000-0  10883-2 0  9990,2 53909  53.2158 150.8272 0001432  69.5619 290.5527 15.08808292 87944,6917.977,95.44,540.833,538.852,0.0
53909.0,STARLINK-4796,PAYLOAD,2024-04-24 09:06:55,15.08866379,0.0001434,53.2152,146.3674,80.9257,279.1898,0.0016454,0.00026015,0.0,0 STARLINK-4796,1 53909U 22119Z   24115.37981206  .00026015  00000-0  16454-2 0  9996,2 53909  53.2152 146.3674 0001434  80.9257 279.1898 15.08866379 88092,6917.8,95.436,540.657,538.673,0.0
